{
  "norad_id": 58084,
  "name": "STARLINK-30586",
  "history": [
    {
      "epoch": "2026-03-28T08:59:43.568448Z",
      "apogee_km": 485.9617891782282,
      "perigee_km": 485.0913393650062,
      "latitude_deg": 1.4677257150842844e-05,
      "longitude_deg": 15.020715314743809,
      "height_km": 485.0439972919494,
      "semi_major_axis_km": 6863.663564271616,
      "eccentricity": 6.341e-05,
      "inclination_deg": 42.9999,
      "raan_deg": 335.7484,
      "arg_perigee_deg": 306.4511,
      "mean_anomaly_deg": 53.6282,
      "mean_motion_rev_day": 15.26752995
    },
    {
      "epoch": "2026-03-29T00:41:48.344064Z",
      "apogee_km": 485.87886802525645,
      "perigee_km": 485.1760287857405,
      "latitude_deg": 2.0048915116450284e-05,
      "longitude_deg": 135.16609184670588,
      "height_km": 484.9654594807601,
      "semi_major_axis_km": 6863.664448405499,
      "eccentricity": 5.12e-05,
      "inclination_deg": 42.9985,
      "raan_deg": 332.0585,
      "arg_perigee_deg": 16.3499,
      "mean_anomaly_deg": 343.7369,
      "mean_motion_rev_day": 15.267527
    },
    {
      "epoch": "2026-03-30T00:14:56.016384Z",
      "apogee_km": 486.92114483935984,
      "perigee_km": 484.42930644896205,
      "latitude_deg": -2.2789643943580436e-05,
      "longitude_deg": 135.38222700728647,
      "height_km": 485.66418918437574,
      "semi_major_axis_km": 6863.812225644161,
      "eccentricity": 0.00018152,
      "inclination_deg": 42.9999,
      "raan_deg": 326.5239,
      "arg_perigee_deg": 260.2077,
      "mean_anomaly_deg": 99.8569,
      "mean_motion_rev_day": 15.26703394
    },
    {
      "epoch": "2026-03-30T08:05:57.533280Z",
      "apogee_km": 486.6381413285244,
      "perigee_km": 484.4796462438462,
      "latitude_deg": 6.119710674337905e-05,
      "longitude_deg": 15.458591202672991,
      "height_km": 485.3389669520343,
      "semi_major_axis_km": 6863.695893786185,
      "eccentricity": 0.00015724,
      "inclination_deg": 43.0004,
      "raan_deg": 324.6789,
      "arg_perigee_deg": 269.8349,
      "mean_anomaly_deg": 90.2323,
      "mean_motion_rev_day": 15.26742208
    },
    {
      "epoch": "2026-03-30T22:13:50.215296Z",
      "apogee_km": 485.94661707688283,
      "perigee_km": 485.1721175787934,
      "latitude_deg": 4.648763490524813e-06,
      "longitude_deg": 159.58957128645892,
      "height_km": 485.4125717516967,
      "semi_major_axis_km": 6863.696367327838,
      "eccentricity": 5.642e-05,
      "inclination_deg": 42.999,
      "raan_deg": 321.3598,
      "arg_perigee_deg": 258.4867,
      "mean_anomaly_deg": 101.5921,
      "mean_motion_rev_day": 15.2674205
    },
    {
      "epoch": "2026-03-31T21:46:57.011520Z",
      "apogee_km": 486.56279233868463,
      "perigee_km": 484.5050637944505,
      "latitude_deg": 1.2568728255196706e-05,
      "longitude_deg": 159.80552182828137,
      "height_km": 485.0801587553861,
      "semi_major_axis_km": 6863.670928066567,
      "eccentricity": 0.0001499,
      "inclination_deg": 42.9988,
      "raan_deg": 315.8213,
      "arg_perigee_deg": 282.9461,
      "mean_anomaly_deg": 77.1223,
      "mean_motion_rev_day": 15.26750538
    },
    {
      "epoch": "2026-04-01T21:19:23.726784Z",
      "apogee_km": 484.8545516949589,
      "perigee_km": 482.98944405933617,
      "latitude_deg": 9.226978050089552e-06,
      "longitude_deg": 160.18892146634158,
      "height_km": 483.58483808798303,
      "semi_major_axis_km": 6862.058997877147,
      "eccentricity": 0.0001359,
      "inclination_deg": 42.9981,
      "raan_deg": 310.2828,
      "arg_perigee_deg": 277.0001,
      "mean_anomaly_deg": 83.0696,
      "mean_motion_rev_day": 15.27288531
    }
  ]
}